ONEWEB-0144             
1 47290U 20100AJ  25258.68423560 -.00000033  00000+0 -12689-3 0  9997
2 47290  87.8896  45.1751 0001764 105.2610 254.8714 13.12444640228569
ONEWEB-0145             
1 47291U 20100AK  25258.65503378 -.00000121  00000+0 -37044-3 0  9991
2 47291  87.8906  45.2123 0001661  99.0052 261.1265 13.12443292228757
ONEWEB-0146             
1 47292U 20100AL  25258.65178915 -.00000071  00000+0 -23341-3 0  9996
2 47292  87.8907  45.1997 0001632  83.8386 276.2928 13.12442557228662
ONEWEB-0147             
1 47293U 20100AM  25258.77018968  .00000196  00000+0  50989-3 0  9995
2 47293  87.8904  45.1544 0001359 102.0825 258.0456 13.12446316228577
ONEWEB-0115             
1 48042U 21025A   25258.70783352  .00000284  00000+0  74177-3 0  9997
2 48042  87.9039  14.7403 0001743  97.9218 262.2109 13.13471773217566
ONEWEB-0152             
1 48043U 21025B   25258.72138368 -.00000060  00000+0 -20029-3 0  9992
2 48043  87.9035  14.7516 0001666  96.9353 263.1966 13.13469991217527
ONEWEB-0153             
1 48044U 21025C   25258.77556105  .00000368  00000+0  97238-3 0  9996
2 48044  87.9041  14.7403 0001811 100.6430 259.4903 13.13470609217528
ONEWEB-0154             
1 48045U 21025D   25258.77216141  .00000369  00000+0  97578-3 0  9998
2 48045  87.9035  14.7380 0001711 100.9458 259.1863 13.13470108217489
